CCSDS_OMM_VERS = 2.0
CREATION_DATE  = 
ORIGINATOR     = 

OBJECT_NAME    = UNKNOWN
OBJECT_ID      = 
CENTER_NAME    = EARTH
REF_FRAME      = TEME
TIME_SYSTEM    = UTC
MEAN_ELEMENT_THEORY = SGP/SGP4

EPOCH          = 2025-10-26T08:05:56.671008
MEAN_MOTION    = 13.14903195
ECCENTRICITY   = .0849516
INCLINATION    = 65.7062
RA_OF_ASC_NODE = 160.7212
ARG_OF_PERICENTER = 134.9826
MEAN_ANOMALY   = 232.3358

EPHEMERIS_TYPE = 0
CLASSIFICATION_TYPE = U
NORAD_CAT_ID   = 81921
ELEMENT_SET_NO = 999
REV_AT_EPOCH   = 1955
BSTAR          = .54748E-3
MEAN_MOTION_DOT = .1301E-4
MEAN_MOTION_DDOT = 0

CCSDS_OMM_VERS = 2.0
CREATION_DATE  = 
ORIGINATOR     = 

OBJECT_NAME    = UNKNOWN
OBJECT_ID      = 
CENTER_NAME    = EARTH
REF_FRAME      = TEME
TIME_SYSTEM    = UTC
MEAN_ELEMENT_THEORY = SGP/SGP4

EPOCH          = 2025-10-31T19:26:59.760096
MEAN_MOTION    = 12.42557959
ECCENTRICITY   = .0669336
INCLINATION    = 66.4188
RA_OF_ASC_NODE = 233.2879
ARG_OF_PERICENTER = 11.5264
MEAN_ANOMALY   = 17.4040

EPHEMERIS_TYPE = 0
CLASSIFICATION_TYPE = U
NORAD_CAT_ID   = 81946
ELEMENT_SET_NO = 999
REV_AT_EPOCH   = 54267
BSTAR          = .61099E-3
MEAN_MOTION_DOT = .133E-5
MEAN_MOTION_DDOT = 0

CCSDS_OMM_VERS = 2.0
CREATION_DATE  = 
ORIGINATOR     = 

OBJECT_NAME    = UNKNOWN
OBJECT_ID      = 
CENTER_NAME    = EARTH
REF_FRAME      = TEME
TIME_SYSTEM    = UTC
MEAN_ELEMENT_THEORY = SGP/SGP4

EPOCH          = 2025-10-29T16:57:08.987328
MEAN_MOTION    = 14.52062274
ECCENTRICITY   = .0382849
INCLINATION    = 66.0746
RA_OF_ASC_NODE = 290.9679
ARG_OF_PERICENTER = 170.1603
MEAN_ANOMALY   = 190.7287

EPHEMERIS_TYPE = 0
CLASSIFICATION_TYPE = U
NORAD_CAT_ID   = 81947
ELEMENT_SET_NO = 999
REV_AT_EPOCH   = 62462
BSTAR          = .53496E-3
MEAN_MOTION_DOT = .5621E-4
MEAN_MOTION_DDOT = 0

CCSDS_OMM_VERS = 2.0
CREATION_DATE  = 
ORIGINATOR     = 

OBJECT_NAME    = UNKNOWN
OBJECT_ID      = 
CENTER_NAME    = EARTH
REF_FRAME      = TEME
TIME_SYSTEM    = UTC
MEAN_ELEMENT_THEORY = SGP/SGP4

EPOCH          = 2025-11-02T13:08:15.829152
MEAN_MOTION    = 13.95757637
ECCENTRICITY   = .0029778
INCLINATION    = 66.5862
RA_OF_ASC_NODE = 358.5963
ARG_OF_PERICENTER = 120.2573
MEAN_ANOMALY   = 240.1460

EPHEMERIS_TYPE = 0
CLASSIFICATION_TYPE = U
NORAD_CAT_ID   = 81964
ELEMENT_SET_NO = 999
REV_AT_EPOCH   = 60843
BSTAR          = .25812E-3
MEAN_MOTION_DOT = .274E-5
MEAN_MOTION_DDOT = 0

CCSDS_OMM_VERS = 2.0
CREATION_DATE  = 
ORIGINATOR     = 

OBJECT_NAME    = UNKNOWN
OBJECT_ID      = 
CENTER_NAME    = EARTH
REF_FRAME      = TEME
TIME_SYSTEM    = UTC
MEAN_ELEMENT_THEORY = SGP/SGP4

EPOCH          = 2025-11-01T14:32:32.777952
MEAN_MOTION    = 15.09805894
ECCENTRICITY   = .0005085
INCLINATION    = 86.6899
RA_OF_ASC_NODE = 171.2607
ARG_OF_PERICENTER = 2.9487
MEAN_ANOMALY   = 357.1780

EPHEMERIS_TYPE = 0
CLASSIFICATION_TYPE = U
NORAD_CAT_ID   = 81969
ELEMENT_SET_NO = 999
REV_AT_EPOCH   = 43396
BSTAR          = .61215E-3
MEAN_MOTION_DOT = .9924E-4
MEAN_MOTION_DDOT = 0

CCSDS_OMM_VERS = 2.0
CREATION_DATE  = 
ORIGINATOR     = 

OBJECT_NAME    = UNKNOWN
OBJECT_ID      = 
CENTER_NAME    = EARTH
REF_FRAME      = TEME
TIME_SYSTEM    = UTC
MEAN_ELEMENT_THEORY = SGP/SGP4

EPOCH          = 2025-11-01T12:38:46.738176
MEAN_MOTION    = 14.03087461
ECCENTRICITY   = .0521132
INCLINATION    = 65.7450
RA_OF_ASC_NODE = 231.7721
ARG_OF_PERICENTER = 317.2563
MEAN_ANOMALY   = 38.9060

EPHEMERIS_TYPE = 0
CLASSIFICATION_TYPE = U
NORAD_CAT_ID   = 81995
ELEMENT_SET_NO = 999
REV_AT_EPOCH   = 59844
BSTAR          = .19657E-2
MEAN_MOTION_DOT = .1038E-3
MEAN_MOTION_DDOT = 0

CCSDS_OMM_VERS = 2.0
CREATION_DATE  = 
ORIGINATOR     = 

OBJECT_NAME    = UNKNOWN
OBJECT_ID      = 
CENTER_NAME    = EARTH
REF_FRAME      = TEME
TIME_SYSTEM    = UTC
MEAN_ELEMENT_THEORY = SGP/SGP4

EPOCH          = 2025-11-01T03:43:07.058784
MEAN_MOTION    = 14.32090235
ECCENTRICITY   = .0232668
INCLINATION    = 97.9261
RA_OF_ASC_NODE = 97.3521
ARG_OF_PERICENTER = 208.3680
MEAN_ANOMALY   = 150.4676

EPHEMERIS_TYPE = 0
CLASSIFICATION_TYPE = U
NORAD_CAT_ID   = 82043
ELEMENT_SET_NO = 999
REV_AT_EPOCH   = 56789
BSTAR          = .1541E-2
MEAN_MOTION_DOT = .5546E-4
MEAN_MOTION_DDOT = 0

CCSDS_OMM_VERS = 2.0
CREATION_DATE  = 
ORIGINATOR     = 

OBJECT_NAME    = UNKNOWN
OBJECT_ID      = 
CENTER_NAME    = EARTH
REF_FRAME      = TEME
TIME_SYSTEM    = UTC
MEAN_ELEMENT_THEORY = SGP/SGP4

EPOCH          = 2025-11-01T12:03:36.711936
MEAN_MOTION    = 14.35243161
ECCENTRICITY   = .0092059
INCLINATION    = 98.7497
RA_OF_ASC_NODE = 30.4089
ARG_OF_PERICENTER = 22.2945
MEAN_ANOMALY   = 338.2202

EPHEMERIS_TYPE = 0
CLASSIFICATION_TYPE = U
NORAD_CAT_ID   = 82051
ELEMENT_SET_NO = 999
REV_AT_EPOCH   = 56649
BSTAR          = .17439E-2
MEAN_MOTION_DOT = .5193E-4
MEAN_MOTION_DDOT = 0

CCSDS_OMM_VERS = 2.0
CREATION_DATE  = 
ORIGINATOR     = 

OBJECT_NAME    = UNKNOWN
OBJECT_ID      = 
CENTER_NAME    = EARTH
REF_FRAME      = TEME
TIME_SYSTEM    = UTC
MEAN_ELEMENT_THEORY = SGP/SGP4

EPOCH          = 2025-11-02T11:36:52.026336
MEAN_MOTION    = 14.38550416
ECCENTRICITY   = .0208855
INCLINATION    = 97.7571
RA_OF_ASC_NODE = 26.4326
ARG_OF_PERICENTER = 50.8508
MEAN_ANOMALY   = 311.1037

EPHEMERIS_TYPE = 0
CLASSIFICATION_TYPE = U
NORAD_CAT_ID   = 82073
ELEMENT_SET_NO = 999
REV_AT_EPOCH   = 56933
BSTAR          = .5882E-3
MEAN_MOTION_DOT = .2277E-4
MEAN_MOTION_DDOT = 0

CCSDS_OMM_VERS = 2.0
CREATION_DATE  = 
ORIGINATOR     = 

OBJECT_NAME    = UNKNOWN
OBJECT_ID      = 
CENTER_NAME    = EARTH
REF_FRAME      = TEME
TIME_SYSTEM    = UTC
MEAN_ELEMENT_THEORY = SGP/SGP4

EPOCH          = 2025-11-01T15:19:03.252576
MEAN_MOTION    = 14.15128114
ECCENTRICITY   = .0084685
INCLINATION    = 99.0276
RA_OF_ASC_NODE = 13.0282
ARG_OF_PERICENTER = 159.0834
MEAN_ANOMALY   = 201.3837

EPHEMERIS_TYPE = 0
CLASSIFICATION_TYPE = U
NORAD_CAT_ID   = 82139
ELEMENT_SET_NO = 999
REV_AT_EPOCH   = 47430
BSTAR          = .15561E-2
MEAN_MOTION_DOT = .3081E-4
MEAN_MOTION_DDOT = 0

CCSDS_OMM_VERS = 2.0
CREATION_DATE  = 
ORIGINATOR     = 

OBJECT_NAME    = UNKNOWN
OBJECT_ID      = 
CENTER_NAME    = EARTH
REF_FRAME      = TEME
TIME_SYSTEM    = UTC
MEAN_ELEMENT_THEORY = SGP/SGP4

EPOCH          = 2025-11-02T12:12:51.393024
MEAN_MOTION    = 13.53143859
ECCENTRICITY   = .0064744
INCLINATION    = 100.4768
RA_OF_ASC_NODE = 228.7087
ARG_OF_PERICENTER = 330.6218
MEAN_ANOMALY   = 29.1282

EPHEMERIS_TYPE = 0
CLASSIFICATION_TYPE = U
NORAD_CAT_ID   = 82162
ELEMENT_SET_NO = 999
REV_AT_EPOCH   = 49886
BSTAR          = .56652E-2
MEAN_MOTION_DOT = .379E-4
MEAN_MOTION_DDOT = 0

CCSDS_OMM_VERS = 2.0
CREATION_DATE  = 
ORIGINATOR     = 

OBJECT_NAME    = UNKNOWN
OBJECT_ID      = 
CENTER_NAME    = EARTH
REF_FRAME      = TEME
TIME_SYSTEM    = UTC
MEAN_ELEMENT_THEORY = SGP/SGP4

EPOCH          = 2025-10-27T01:28:58.350144
MEAN_MOTION    = 14.48806690
ECCENTRICITY   = .033146
INCLINATION    = 65.6558
RA_OF_ASC_NODE = 60.1767
ARG_OF_PERICENTER = 240.7339
MEAN_ANOMALY   = 116.0253

EPHEMERIS_TYPE = 0
CLASSIFICATION_TYPE = U
NORAD_CAT_ID   = 82180
ELEMENT_SET_NO = 999
REV_AT_EPOCH   = 59498
BSTAR          = .38605E-2
MEAN_MOTION_DOT = .29618E-3
MEAN_MOTION_DDOT = 0

CCSDS_OMM_VERS = 2.0
CREATION_DATE  = 
ORIGINATOR     = 

OBJECT_NAME    = UNKNOWN
OBJECT_ID      = 
CENTER_NAME    = EARTH
REF_FRAME      = TEME
TIME_SYSTEM    = UTC
MEAN_ELEMENT_THEORY = SGP/SGP4

EPOCH          = 2025-11-02T05:12:30.755232
MEAN_MOTION    = 14.35163502
ECCENTRICITY   = .0017081
INCLINATION    = 74.0324
RA_OF_ASC_NODE = 122.6164
ARG_OF_PERICENTER = 320.8115
MEAN_ANOMALY   = 39.1799

EPHEMERIS_TYPE = 0
CLASSIFICATION_TYPE = U
NORAD_CAT_ID   = 82189
ELEMENT_SET_NO = 999
REV_AT_EPOCH   = 62660
BSTAR          = .13683E-3
MEAN_MOTION_DOT = .365E-5
MEAN_MOTION_DDOT = 0

CCSDS_OMM_VERS = 2.0
CREATION_DATE  = 
ORIGINATOR     = 

OBJECT_NAME    = UNKNOWN
OBJECT_ID      = 
CENTER_NAME    = EARTH
REF_FRAME      = TEME
TIME_SYSTEM    = UTC
MEAN_ELEMENT_THEORY = SGP/SGP4

EPOCH          = 2025-11-01T21:06:57.051936
MEAN_MOTION    = 13.85710554
ECCENTRICITY   = .0037299
INCLINATION    = 82.9645
RA_OF_ASC_NODE = 264.5980
ARG_OF_PERICENTER = 149.5624
MEAN_ANOMALY   = 240.9935

EPHEMERIS_TYPE = 0
CLASSIFICATION_TYPE = U
NORAD_CAT_ID   = 82199
ELEMENT_SET_NO = 999
REV_AT_EPOCH   = 60403
BSTAR          = .581E-3
MEAN_MOTION_DOT = .684E-5
MEAN_MOTION_DDOT = 0

CCSDS_OMM_VERS = 2.0
CREATION_DATE  = 
ORIGINATOR     = 

OBJECT_NAME    = UNKNOWN
OBJECT_ID      = 
CENTER_NAME    = EARTH
REF_FRAME      = TEME
TIME_SYSTEM    = UTC
MEAN_ELEMENT_THEORY = SGP/SGP4

EPOCH          = 2025-11-02T13:04:02.477568
MEAN_MOTION    = 13.92827582
ECCENTRICITY   = .0494795
INCLINATION    = 63.0119
RA_OF_ASC_NODE = 359.4544
ARG_OF_PERICENTER = 288.7475
MEAN_ANOMALY   = 66.0508

EPHEMERIS_TYPE = 0
CLASSIFICATION_TYPE = U
NORAD_CAT_ID   = 82205
ELEMENT_SET_NO = 999
REV_AT_EPOCH   = 60240
BSTAR          = .11708E-2
MEAN_MOTION_DOT = .4093E-4
MEAN_MOTION_DDOT = 0

CCSDS_OMM_VERS = 2.0
CREATION_DATE  = 
ORIGINATOR     = 

OBJECT_NAME    = UNKNOWN
OBJECT_ID      = 
CENTER_NAME    = EARTH
REF_FRAME      = TEME
TIME_SYSTEM    = UTC
MEAN_ELEMENT_THEORY = SGP/SGP4

EPOCH          = 2025-10-28T09:49:41.740896
MEAN_MOTION    = 14.11518009
ECCENTRICITY   = .0068824
INCLINATION    = 99.3191
RA_OF_ASC_NODE = 185.6210
ARG_OF_PERICENTER = 110.4348
MEAN_ANOMALY   = 250.4229

EPHEMERIS_TYPE = 0
CLASSIFICATION_TYPE = U
NORAD_CAT_ID   = 82223
ELEMENT_SET_NO = 999
REV_AT_EPOCH   = 44239
BSTAR          = .16313E-2
MEAN_MOTION_DOT = .298E-4
MEAN_MOTION_DDOT = 0

